IRIDIUM 157             
1 43251U 18030C   26187.72138110  .00000088  00000+0  24201-4 0  9992
2 43251  86.3966 282.2535 0002256  95.4380 264.7073 14.34218420432935
IRIDIUM 140             
1 43252U 18030D   26187.67063907  .00000146  00000+0  44974-4 0  9992
2 43252  86.3963 282.2869 0002229  95.9499 264.1951 14.34219087432983
IRIDIUM 145             
1 43253U 18030E   26187.72771811  .00000111  00000+0  32404-4 0  9996
2 43253  86.3964 282.2354 0002364 102.9496 257.1964 14.34216712432922
IRIDIUM 146             
1 43254U 18030F   26187.77846375  .00000094  00000+0  26666-4 0  9993
2 43254  86.3962 282.2262 0002329  98.0232 262.1229 14.34218735432942
IRIDIUM 148             
1 43255U 18030G   26187.67698377  .00000195  00000+0  62416-4 0  9995
2 43255  86.3966 282.3122 0002340  94.9557 265.1906 14.34217543432964
IRIDIUM 142             
1 43256U 18030H   26187.64526985  .00000276  00000+0  91602-4 0  9997
2 43256  86.3960 282.2135 0002369  98.9410 261.2054 14.34218923432925
IRIDIUM 150             
1 43257U 18030J   26187.68332520  .00000110  00000+0  32293-4 0  9990
2 43257  86.3964 282.3148 0002222  96.4536 263.6913 14.34218642432956
IRIDIUM 143             
1 43258U 18030K   26187.73406522  .00000120  00000+0  35732-4 0  9993
2 43258  86.3968 282.3869 0002270  97.7894 262.3560 14.34217676432898
IRIDIUM 161             
1 43478U 18047C   26187.72028439  .00000273  00000+0  75090-4 0  9991
2 43478  86.4471  80.3035 0002389  79.2434 280.9035 14.43283247427950
IRIDIUM 152             
1 43479U 18047D   26187.84633106  .00000218  00000+0  70645-4 0  9998
2 43479  86.3947  80.1122 0002188  81.9212 278.2232 14.34217891425302
IRIDIUM 147             
1 43480U 18047E   26187.71312309  .00000215  00000+0  69817-4 0  9991
2 43480  86.3948  80.1733 0002281  87.9808 272.1649 14.34217455425282
IRIDIUM 110             
1 43481U 18047F   26187.71946894  .00000235  00000+0  76782-4 0  9995
2 43481  86.3950  80.2631 0002313  76.3409 283.8044 14.34218959425276
IRIDIUM 162             
1 43482U 18047G   26187.71398431  .00000296  00000+0  81943-4 0  9996
2 43482  86.4470  80.1970 0002231  83.8954 276.2501 14.43282126427944
IRIDIUM 160             
1 43569U 18061A   26187.66530544  .00000145  00000+0  44583-4 0  9997
2 43569  86.3944  48.6510 0002282  85.6549 274.4907 14.34218353416163
